{"fetched_at":"2026-07-16T17:46:07.288Z","source":"https://celestrak.org/NORAD/elements/gp.php?GROUP=planet&FORMAT=JSON","constellation":"superdove","records":[{"OBJECT_NAME":"FLOCK 4BE-3","OBJECT_ID":"2024-149CX","EPOCH":"2026-07-16T05:14:52.177344","CLASSIFICATION_TYPE":"U","MEAN_MOTION":15.42414119,"ECCENTRICITY":0.00051902,"INCLINATION":97.3693,"RA_OF_ASC_NODE":281.4249,"ARG_OF_PERICENTER":165.8557,"MEAN_ANOMALY":194.2837,"EPHEMERIS_TYPE":0,"NORAD_CAT_ID":60561,"ELEMENT_SET_NO":999,"REV_AT_EPOCH":10681,"BSTAR":0.00022044792,"MEAN_MOTION_DOT":0.00009444,"MEAN_MOTION_DDOT":0},{"OBJECT_NAME":"FLOCK 4BE-19","OBJECT_ID":"2024-149CZ","EPOCH":"2026-07-16T04:56:37.375296","CLASSIFICATION_TYPE":"U","MEAN_MOTION":15.45681082,"ECCENTRICITY":0.00061111,"INCLINATION":97.3745,"RA_OF_ASC_NODE":283.1013,"ARG_OF_PERICENTER":172.0474,"MEAN_ANOMALY":188.0873,"EPHEMERIS_TYPE":0,"NORAD_CAT_ID":60563,"ELEMENT_SET_NO":999,"REV_AT_EPOCH":10690,"BSTAR":0.00031078112,"MEAN_MOTION_DOT":0.00014924,"MEAN_MOTION_DDOT":0},{"OBJECT_NAME":"FLOCK 4G-8","OBJECT_ID":"2025-009E","EPOCH":"2026-07-16T04:31:39.938016","CLASSIFICATION_TYPE":"U","MEAN_MOTION":15.30254031,"ECCENTRICITY":0.00041554,"INCLINATION":97.4006,"RA_OF_ASC_NODE":279.0805,"ARG_OF_PERICENTER":188.3629,"MEAN_ANOMALY":171.7543,"EPHEMERIS_TYPE":0,"NORAD_CAT_ID":62613,"ELEMENT_SET_NO":999,"REV_AT_EPOCH":8335,"BSTAR":0.00018183665,"MEAN_MOTION_DOT":0.00005246,"MEAN_MOTION_DDOT":0},{"OBJECT_NAME":"FLOCK 4G-13","OBJECT_ID":"2025-009N","EPOCH":"2026-07-16T04:42:53.756928","CLASSIFICATION_TYPE":"U","MEAN_MOTION":15.49004762,"ECCENTRICITY":0.0006616,"INCLINATION":97.3949,"RA_OF_ASC_NODE":281.0735,"ARG_OF_PERICENTER":195.8562,"MEAN_ANOMALY":164.2482,"EPHEMERIS_TYPE":0,"NORAD_CAT_ID":62621,"ELEMENT_SET_NO":999,"REV_AT_EPOCH":8348,"BSTAR":0.00089498047,"MEAN_MOTION_DOT":0.00048609,"MEAN_MOTION_DDOT":0},{"OBJECT_NAME":"FLOCK 4G-9","OBJECT_ID":"2025-009P","EPOCH":"2026-07-16T05:06:00.476928","CLASSIFICATION_TYPE":"U","MEAN_MOTION":15.28519078,"ECCENTRICITY":0.00041762,"INCLINATION":97.3958,"RA_OF_ASC_NODE":277.9557,"ARG_OF_PERICENTER":201.1906,"MEAN_ANOMALY":158.9161,"EPHEMERIS_TYPE":0,"NORAD_CAT_ID":62622,"ELEMENT_SET_NO":999,"REV_AT_EPOCH":8329,"BSTAR":0.00017010561,"MEAN_MOTION_DOT":0.00004646,"MEAN_MOTION_DDOT":0},{"OBJECT_NAME":"FLOCK 4G-7","OBJECT_ID":"2025-009R","EPOCH":"2026-07-16T04:09:07.289856","CLASSIFICATION_TYPE":"U","MEAN_MOTION":15.29885991,"ECCENTRICITY":0.00027037,"INCLINATION":97.3942,"RA_OF_ASC_NODE":278.3351,"ARG_OF_PERICENTER":178.776,"MEAN_ANOMALY":181.3488,"EPHEMERIS_TYPE":0,"NORAD_CAT_ID":62624,"ELEMENT_SET_NO":999,"REV_AT_EPOCH":8333,"BSTAR":0.00018140482,"MEAN_MOTION_DOT":0.00005173,"MEAN_MOTION_DDOT":0},{"OBJECT_NAME":"FLOCK 4G-12","OBJECT_ID":"2025-009S","EPOCH":"2026-07-16T04:02:23.404416","CLASSIFICATION_TYPE":"U","MEAN_MOTION":15.29783886,"ECCENTRICITY":0.00042778,"INCLINATION":97.4021,"RA_OF_ASC_NODE":278.8807,"ARG_OF_PERICENTER":185.1477,"MEAN_ANOMALY":174.972,"EPHEMERIS_TYPE":0,"NORAD_CAT_ID":62625,"ELEMENT_SET_NO":999,"REV_AT_EPOCH":8333,"BSTAR":0.00020615829,"MEAN_MOTION_DOT":0.00005872,"MEAN_MOTION_DDOT":0},{"OBJECT_NAME":"FLOCK 4G-11","OBJECT_ID":"2025-009W","EPOCH":"2026-07-16T05:14:40.563456","CLASSIFICATION_TYPE":"U","MEAN_MOTION":15.29894464,"ECCENTRICITY":0.00027479,"INCLINATION":97.3921,"RA_OF_ASC_NODE":278.4879,"ARG_OF_PERICENTER":181.345,"MEAN_ANOMALY":178.7784,"EPHEMERIS_TYPE":0,"NORAD_CAT_ID":62629,"ELEMENT_SET_NO":999,"REV_AT_EPOCH":8335,"BSTAR":0.00020108384,"MEAN_MOTION_DOT":0.00005744,"MEAN_MOTION_DDOT":0},{"OBJECT_NAME":"FLOCK 4G-26","OBJECT_ID":"2025-009AA","EPOCH":"2026-07-16T03:59:52.240704","CLASSIFICATION_TYPE":"U","MEAN_MOTION":15.30083973,"ECCENTRICITY":0.00037446,"INCLINATION":97.4016,"RA_OF_ASC_NODE":279.0405,"ARG_OF_PERICENTER":174.7601,"MEAN_ANOMALY":185.368,"EPHEMERIS_TYPE":0,"NORAD_CAT_ID":62633,"ELEMENT_SET_NO":999,"REV_AT_EPOCH":8334,"BSTAR":0.0002291885,"MEAN_MOTION_DOT":0.00006597,"MEAN_MOTION_DDOT":0},{"OBJECT_NAME":"FLOCK 4G-28","OBJECT_ID":"2025-009AB","EPOCH":"2026-07-16T04:39:33.891264","CLASSIFICATION_TYPE":"U","MEAN_MOTION":15.35290771,"ECCENTRICITY":0.00022205,"INCLINATION":97.4028,"RA_OF_ASC_NODE":281.8608,"ARG_OF_PERICENTER":159.8749,"MEAN_ANOMALY":200.2583,"EPHEMERIS_TYPE":0,"NORAD_CAT_ID":62634,"ELEMENT_SET_NO":999,"REV_AT_EPOCH":8353,"BSTAR":0.0001404013,"MEAN_MOTION_DOT":0.00004729,"MEAN_MOTION_DDOT":0},{"OBJECT_NAME":"FLOCK 4G-24","OBJECT_ID":"2025-009AE","EPOCH":"2026-07-16T04:15:49.360896","CLASSIFICATION_TYPE":"U","MEAN_MOTION":15.3037837,"ECCENTRICITY":0.00038144,"INCLINATION":97.4025,"RA_OF_ASC_NODE":279.3569,"ARG_OF_PERICENTER":162.8209,"MEAN_ANOMALY":197.3161,"EPHEMERIS_TYPE":0,"NORAD_CAT_ID":62637,"ELEMENT_SET_NO":999,"REV_AT_EPOCH":8336,"BSTAR":0.00018704482,"MEAN_MOTION_DOT":0.00005419,"MEAN_MOTION_DDOT":0},{"OBJECT_NAME":"FLOCK 4G-3","OBJECT_ID":"2025-009AG","EPOCH":"2026-07-16T04:06:27.983808","CLASSIFICATION_TYPE":"U","MEAN_MOTION":15.29884963,"ECCENTRICITY":0.00033676,"INCLINATION":97.4024,"RA_OF_ASC_NODE":279.0577,"ARG_OF_PERICENTER":167.4466,"MEAN_ANOMALY":192.6859,"EPHEMERIS_TYPE":0,"NORAD_CAT_ID":62639,"ELEMENT_SET_NO":999,"REV_AT_EPOCH":8333,"BSTAR":0.00020259743,"MEAN_MOTION_DOT":0.00005787,"MEAN_MOTION_DDOT":0},{"OBJECT_NAME":"FLOCK 4G-27","OBJECT_ID":"2025-009AJ","EPOCH":"2026-07-16T04:34:42.997152","CLASSIFICATION_TYPE":"U","MEAN_MOTION":15.29818215,"ECCENTRICITY":0.00026475,"INCLINATION":97.3935,"RA_OF_ASC_NODE":278.4242,"ARG_OF_PERICENTER":166.8563,"MEAN_ANOMALY":193.2747,"EPHEMERIS_TYPE":0,"NORAD_CAT_ID":62641,"ELEMENT_SET_NO":999,"REV_AT_EPOCH":8333,"BSTAR":0.0001798094,"MEAN_MOTION_DOT":0.00005116,"MEAN_MOTION_DDOT":0},{"OBJECT_NAME":"FLOCK 4G-29","OBJECT_ID":"2025-009AK","EPOCH":"2026-07-16T04:13:33.986784","CLASSIFICATION_TYPE":"U","MEAN_MOTION":15.29870739,"ECCENTRICITY":0.0003517,"INCLINATION":97.402,"RA_OF_ASC_NODE":279.0224,"ARG_OF_PERICENTER":163.8518,"MEAN_ANOMALY":196.2835,"EPHEMERIS_TYPE":0,"NORAD_CAT_ID":62642,"ELEMENT_SET_NO":999,"REV_AT_EPOCH":8333,"BSTAR":0.00016515662,"MEAN_MOTION_DOT":0.00004701,"MEAN_MOTION_DDOT":0},{"OBJECT_NAME":"FLOCK 4G-22","OBJECT_ID":"2025-009AN","EPOCH":"2026-07-16T04:40:13.679328","CLASSIFICATION_TYPE":"U","MEAN_MOTION":15.29784626,"ECCENTRICITY":0.00030512,"INCLINATION":97.4007,"RA_OF_ASC_NODE":279.0748,"ARG_OF_PERICENTER":159.8072,"MEAN_ANOMALY":200.329,"EPHEMERIS_TYPE":0,"NORAD_CAT_ID":62645,"ELEMENT_SET_NO":999,"REV_AT_EPOCH":8335,"BSTAR":0.00019870236,"MEAN_MOTION_DOT":0.00005656,"MEAN_MOTION_DDOT":0},{"OBJECT_NAME":"FLOCK 4G-25","OBJECT_ID":"2025-009AP","EPOCH":"2026-07-16T04:02:11.885568","CLASSIFICATION_TYPE":"U","MEAN_MOTION":15.30020661,"ECCENTRICITY":0.00024926,"INCLINATION":97.4015,"RA_OF_ASC_NODE":279.1276,"ARG_OF_PERICENTER":160.1612,"MEAN_ANOMALY":199.9726,"EPHEMERIS_TYPE":0,"NORAD_CAT_ID":62646,"ELEMENT_SET_NO":999,"REV_AT_EPOCH":8335,"BSTAR":0.00019655591,"MEAN_MOTION_DOT":0.00005635,"MEAN_MOTION_DDOT":0}]}
