FLOCK 4BE-3             
1 60561U 24149CX  26197.21865946  .00009444  00000+0  22045-3 0  9990
2 60561  97.3693 281.4249 0005190 165.8557 194.2837 15.42414119106811
FLOCK 4BE-19            
1 60563U 24149CZ  26197.20598814  .00014924  00000+0  31078-3 0  9993
2 60563  97.3745 283.1013 0006111 172.0474 188.0873 15.45681082106900
FLOCK 4G-8              
1 62613U 25009E   26197.18865669  .00005246  00000+0  18184-3 0  9999
2 62613  97.4006 279.0805 0004155 188.3629 171.7543 15.30254031 83350
FLOCK 4G-13             
1 62621U 25009N   26197.19645552  .00048609  00000+0  89498-3 0  9992
2 62621  97.3949 281.0735 0006616 195.8562 164.2482 15.49004762 83489
FLOCK 4G-9              
1 62622U 25009P   26197.21250552  .00004646  00000+0  17011-3 0  9993
2 62622  97.3958 277.9557 0004176 201.1906 158.9161 15.28519078 83299
FLOCK 4G-7              
1 62624U 25009R   26197.17300104  .00005173  00000+0  18140-3 0  9999
2 62624  97.3942 278.3351 0002703 178.7760 181.3488 15.29885991 83330
FLOCK 4G-12             
1 62625U 25009S   26197.16832644  .00005872  00000+0  20616-3 0  9995
2 62625  97.4021 278.8807 0004277 185.1477 174.9720 15.29783886 83333
FLOCK 4G-11             
1 62629U 25009W   26197.21852504  .00005744  00000+0  20108-3 0  9996
2 62629  97.3921 278.4879 0002747 181.3450 178.7784 15.29894464 83358
FLOCK 4G-26             
1 62633U 25009AA  26197.16657686  .00006597  00000+0  22919-3 0  9998
2 62633  97.4016 279.0405 0003744 174.7601 185.3680 15.30083973 83348
FLOCK 4G-28             
1 62634U 25009AB  26197.19414226  .00004729  00000+0  14040-3 0  9994
2 62634  97.4028 281.8608 0002220 159.8749 200.2583 15.35290771 83534
FLOCK 4G-24             
1 62637U 25009AE  26197.17765464  .00005419  00000+0  18704-3 0  9996
2 62637  97.4025 279.3569 0003814 162.8209 197.3161 15.30378370 83363
FLOCK 4G-3              
1 62639U 25009AG  26197.17115722  .00005787  00000+0  20260-3 0  9992
2 62639  97.4024 279.0577 0003367 167.4466 192.6859 15.29884963 83336
FLOCK 4G-27             
1 62641U 25009AJ  26197.19077543  .00005116  00000+0  17981-3 0  9997
2 62641  97.3935 278.4242 0002647 166.8563 193.2747 15.29818215 83332
FLOCK 4G-29             
1 62642U 25009AK  26197.17608781  .00004701  00000+0  16516-3 0  9992
2 62642  97.4020 279.0224 0003517 163.8518 196.2835 15.29870739 83330
FLOCK 4G-22             
1 62645U 25009AN  26197.19460277  .00005656  00000+0  19870-3 0  9999
2 62645  97.4007 279.0748 0003051 159.8072 200.3290 15.29784626 83355
FLOCK 4G-25             
1 62646U 25009AP  26197.16819312  .00005635  00000+0  19656-3 0  9994
2 62646  97.4015 279.1276 0002492 160.1612 199.9726 15.30020661 83356
